STARLINK-30322          
1 57670U 23124H   26068.70332945 -.00000645  00000+0 -96486-5 0  9996
2 57670  53.1606 207.0037 0001278  66.9385 293.1751 15.30188184143568
TEVEL2-2                
1 63219U 25052K   26068.64848259  .00020339  00000+0  69428-3 0  9991
2 63219  97.3987 324.7700 0004693 105.7930 254.3828 15.30343745 54855
